<?xml version="1.0" encoding="UTF-8"?>
<kml xmlns="http://www.opengis.net/kml/2.2">
  <Document>
    <name>Survey</name>
    <Folder>
      <name>Parcels</name>
      <Folder>
        <name>North block</name>
        <Placemark>
          <name>Plot 1</name>
          <description>polygon with a hole</description>
          <Polygon>
            <outerBoundaryIs><LinearRing><coordinates>72.87,19.07,5 72.88,19.07,5 72.88,19.08,5 72.87,19.08,5 72.87,19.07,5</coordinates></LinearRing></outerBoundaryIs>
            <innerBoundaryIs><LinearRing><coordinates>72.872,19.072,5 72.878,19.072,5 72.878,19.078,5 72.872,19.072,5</coordinates></LinearRing></innerBoundaryIs>
          </Polygon>
        </Placemark>
      </Folder>
      <Placemark>
        <name>Access road</name>
        <LineString><coordinates>72.87,19.07,0 72.885,19.075,0 72.89,19.08,0</coordinates></LineString>
      </Placemark>
    </Folder>
    <Folder>
      <name>Markers</name>
      <Placemark>
        <name>Survey point</name>
        <Point><coordinates>72.9,19.1,50</coordinates></Point>
      </Placemark>
      <Placemark>
        <name>Mixed marker</name>
        <MultiGeometry>
          <Point><coordinates>72.91,19.11,20</coordinates></Point>
          <Polygon>
            <outerBoundaryIs><LinearRing><coordinates>72.905,19.105 72.915,19.105 72.915,19.115 72.905,19.105</coordinates></LinearRing></outerBoundaryIs>
          </Polygon>
        </MultiGeometry>
      </Placemark>
      <Placemark>
        <name>Note only</name>
        <description>no geometry here</description>
      </Placemark>
    </Folder>
  </Document>
</kml>
